QIANFAN-65              
1 62795U 25016L   25361.76552615  .00000188  00000+0  27207-3 0  9994
2 62795  88.9766 101.5072 0012200 301.4032  58.5925 13.50982644 49277
QIANFAN-66              
1 62796U 25016M   25361.79436072  .00000194  00000+0  28132-3 0  9991
2 62796  88.9786 101.4773 0013283 296.1375  63.8410 13.50981882 49326
QIANFAN-67              
1 62797U 25016N   25361.79856546  .00000185  00000+0  26740-3 0  9997
2 62797  88.9776 101.5010 0013292 303.9579  56.0308 13.50986035 49295
QIANFAN-68              
1 62798U 25016P   25361.79023411  .00000191  00000+0  27689-3 0  9995
2 62798  88.9779 101.5476 0013333 301.9734  58.0120 13.50988440 49276
QIANFAN-69              
1 62799U 25016Q   25361.80669507  .00000181  00000+0  26169-3 0  9991
2 62799  88.9758 101.4120 0014088 303.1174  56.8624 13.50991225 49314
QIANFAN-70              
1 62800U 25016R   25361.82322391  .00000180  00000+0  26071-3 0  9994
2 62800  88.9779 101.5520 0013653 292.2169  67.7533 13.50982113 49275
QIANFAN-71              
1 62801U 25016S   25361.81902951  .00000173  00000+0  24879-3 0  9996
2 62801  88.9773 101.5310 0014042 307.0783  52.9084 13.50981630 49277
QIANFAN-72              
1 62802U 25016T   25361.76141741  .00000194  00000+0  28224-3 0  9994
2 62802  88.9763 101.5489 0017385 314.7503  45.2232 13.50981434 49252
